[{"OBJECT_NAME":"ONEWEB-0703","OBJECT_ID":"2023-068Q","EPOCH":"2026-02-10T02:10:08.410368","MEAN_MOTION":13.15549443,"ECCENTRICITY":6.2e-5,"INCLINATION":87.8974,"RA_OF_ASC_NODE":284.5834,"ARG_OF_PERICENTER":58.1193,"MEAN_ANOMALY":301.9997,"EPHEMERIS_TYPE":0,"CLASSIFICATION_TYPE":"U","NORAD_CAT_ID":56724,"ELEMENT_SET_NO":999,"REV_AT_EPOCH":13254,"BSTAR":-0.0001411,"MEAN_MOTION_DOT":-4.0e-7,"MEAN_MOTION_DDOT":0},{"OBJECT_NAME":"ONEWEB-0721","OBJECT_ID":"2023-068R","EPOCH":"2026-02-10T04:24:03.731328","MEAN_MOTION":13.22459139,"ECCENTRICITY":0.0001785,"INCLINATION":86.6805,"RA_OF_ASC_NODE":126.0591,"ARG_OF_PERICENTER":105.3683,"MEAN_ANOMALY":254.7648,"EPHEMERIS_TYPE":0,"CLASSIFICATION_TYPE":"U","NORAD_CAT_ID":56725,"ELEMENT_SET_NO":999,"REV_AT_EPOCH":14115,"BSTAR":9.7956e-5,"MEAN_MOTION_DOT":5.5e-7,"MEAN_MOTION_DDOT":0},{"OBJECT_NAME":"ONEWEB-0015","OBJECT_ID":"2024-188A","EPOCH":"2026-02-09T23:17:00.920256","MEAN_MOTION":13.11417105,"ECCENTRICITY":0.0002111,"INCLINATION":87.8818,"RA_OF_ASC_NODE":46.4071,"ARG_OF_PERICENTER":72.908,"MEAN_ANOMALY":287.2279,"EPHEMERIS_TYPE":0,"CLASSIFICATION_TYPE":"U","NORAD_CAT_ID":61594,"ELEMENT_SET_NO":999,"REV_AT_EPOCH":6778,"BSTAR":-0.0010979,"MEAN_MOTION_DOT":-3.76e-6,"MEAN_MOTION_DDOT":0},{"OBJECT_NAME":"ONEWEB-0687","OBJECT_ID":"2024-188B","EPOCH":"2026-02-10T00:54:16.715808","MEAN_MOTION":13.17647205,"ECCENTRICITY":0.0002425,"INCLINATION":87.9091,"RA_OF_ASC_NODE":31.1466,"ARG_OF_PERICENTER":84.0058,"MEAN_ANOMALY":276.135,"EPHEMERIS_TYPE":0,"CLASSIFICATION_TYPE":"U","NORAD_CAT_ID":61595,"ELEMENT_SET_NO":999,"REV_AT_EPOCH":6915,"BSTAR":0.00042112,"MEAN_MOTION_DOT":1.76e-6,"MEAN_MOTION_DDOT":0},{"OBJECT_NAME":"ONEWEB-0688","OBJECT_ID":"2024-188C","EPOCH":"2026-02-09T23:46:14.953440","MEAN_MOTION":13.17648566,"ECCENTRICITY":0.0002587,"INCLINATION":87.9089,"RA_OF_ASC_NODE":31.1557,"ARG_OF_PERICENTER":56.8626,"MEAN_ANOMALY":303.2753,"EPHEMERIS_TYPE":0,"CLASSIFICATION_TYPE":"U","NORAD_CAT_ID":61596,"ELEMENT_SET_NO":999,"REV_AT_EPOCH":6914,"BSTAR":-6.2456e-6,"MEAN_MOTION_DOT":1.0e-7,"MEAN_MOTION_DDOT":0},{"OBJECT_NAME":"ONEWEB-0689","OBJECT_ID":"2024-188D","EPOCH":"2026-02-10T00:05:51.684288","MEAN_MOTION":13.11415996,"ECCENTRICITY":0.0002163,"INCLINATION":87.8831,"RA_OF_ASC_NODE":46.3362,"ARG_OF_PERICENTER":91.4388,"MEAN_ANOMALY":268.6987,"EPHEMERIS_TYPE":0,"CLASSIFICATION_TYPE":"U","NORAD_CAT_ID":61597,"ELEMENT_SET_NO":999,"REV_AT_EPOCH":6778,"BSTAR":0.0014983,"MEAN_MOTION_DOT":5.44e-6,"MEAN_MOTION_DDOT":0},{"OBJECT_NAME":"ONEWEB-0690","OBJECT_ID":"2024-188E","EPOCH":"2026-02-10T00:20:30.272064","MEAN_MOTION":13.11415894,"ECCENTRICITY":0.0001143,"INCLINATION":87.8832,"RA_OF_ASC_NODE":46.3548,"ARG_OF_PERICENTER":88.5033,"MEAN_ANOMALY":271.6226,"EPHEMERIS_TYPE":0,"CLASSIFICATION_TYPE":"U","NORAD_CAT_ID":61598,"ELEMENT_SET_NO":999,"REV_AT_EPOCH":6796,"BSTAR":0.00064056,"MEAN_MOTION_DOT":2.4e-6,"MEAN_MOTION_DDOT":0},{"OBJECT_NAME":"ONEWEB-0691","OBJECT_ID":"2024-188F","EPOCH":"2026-02-09T22:23:19.239648","MEAN_MOTION":13.11415437,"ECCENTRICITY":0.0002074,"INCLINATION":87.8838,"RA_OF_ASC_NODE":46.2697,"ARG_OF_PERICENTER":77.2907,"MEAN_ANOMALY":282.8453,"EPHEMERIS_TYPE":0,"CLASSIFICATION_TYPE":"U","NORAD_CAT_ID":61599,"ELEMENT_SET_NO":999,"REV_AT_EPOCH":6780,"BSTAR":0.00084775,"MEAN_MOTION_DOT":3.13e-6,"MEAN_MOTION_DDOT":0},{"OBJECT_NAME":"ONEWEB-0692","OBJECT_ID":"2024-188G","EPOCH":"2026-02-10T00:42:27.948960","MEAN_MOTION":13.11415832,"ECCENTRICITY":0.0002247,"INCLINATION":87.8818,"RA_OF_ASC_NODE":46.388,"ARG_OF_PERICENTER":115.4565,"MEAN_ANOMALY":244.6796,"EPHEMERIS_TYPE":0,"CLASSIFICATION_TYPE":"U","NORAD_CAT_ID":61600,"ELEMENT_SET_NO":999,"REV_AT_EPOCH":6780,"BSTAR":-0.0013137,"MEAN_MOTION_DOT":-4.53e-6,"MEAN_MOTION_DDOT":0},{"OBJECT_NAME":"ONEWEB-0693","OBJECT_ID":"2024-188H","EPOCH":"2026-02-09T11:17:49.758720","MEAN_MOTION":13.17647992,"ECCENTRICITY":0.00011593,"INCLINATION":87.9085,"RA_OF_ASC_NODE":31.2812,"ARG_OF_PERICENTER":70.1688,"MEAN_ANOMALY":289.9568,"EPHEMERIS_TYPE":0,"CLASSIFICATION_TYPE":"U","NORAD_CAT_ID":61601,"ELEMENT_SET_NO":999,"REV_AT_EPOCH":6906,"BSTAR":5.1654694e-5,"MEAN_MOTION_DOT":3.3e-7,"MEAN_MOTION_DDOT":0},{"OBJECT_NAME":"ONEWEB-0695","OBJECT_ID":"2024-188J","EPOCH":"2026-02-10T00:08:18.501216","MEAN_MOTION":13.1141453,"ECCENTRICITY":0.0002287,"INCLINATION":87.8818,"RA_OF_ASC_NODE":46.3835,"ARG_OF_PERICENTER":98.6361,"MEAN_ANOMALY":261.5026,"EPHEMERIS_TYPE":0,"CLASSIFICATION_TYPE":"U","NORAD_CAT_ID":61602,"ELEMENT_SET_NO":999,"REV_AT_EPOCH":6779,"BSTAR":0.0014247,"MEAN_MOTION_DOT":5.18e-6,"MEAN_MOTION_DDOT":0},{"OBJECT_NAME":"ONEWEB-0697","OBJECT_ID":"2024-188K","EPOCH":"2026-02-10T00:54:40.461120","MEAN_MOTION":13.11416827,"ECCENTRICITY":0.0002135,"INCLINATION":87.8819,"RA_OF_ASC_NODE":46.3666,"ARG_OF_PERICENTER":112.0704,"MEAN_ANOMALY":248.065,"EPHEMERIS_TYPE":0,"CLASSIFICATION_TYPE":"U","NORAD_CAT_ID":61603,"ELEMENT_SET_NO":999,"REV_AT_EPOCH":6778,"BSTAR":-0.0013436,"MEAN_MOTION_DOT":-4.63e-6,"MEAN_MOTION_DDOT":0},{"OBJECT_NAME":"ONEWEB-0698","OBJECT_ID":"2024-188L","EPOCH":"2026-02-10T00:22:56.828064","MEAN_MOTION":13.11415508,"ECCENTRICITY":0.0001433,"INCLINATION":87.8818,"RA_OF_ASC_NODE":46.3861,"ARG_OF_PERICENTER":130.2823,"MEAN_ANOMALY":229.843,"EPHEMERIS_TYPE":0,"CLASSIFICATION_TYPE":"U","NORAD_CAT_ID":61604,"ELEMENT_SET_NO":999,"REV_AT_EPOCH":6780,"BSTAR":0.00040626,"MEAN_MOTION_DOT":1.57e-6,"MEAN_MOTION_DDOT":0},{"OBJECT_NAME":"ONEWEB-0699","OBJECT_ID":"2024-188M","EPOCH":"2026-02-10T01:55:34.293792","MEAN_MOTION":13.10371712,"ECCENTRICITY":0.0001989,"INCLINATION":87.8759,"RA_OF_ASC_NODE":61.5887,"ARG_OF_PERICENTER":112.6732,"MEAN_ANOMALY":247.4605,"EPHEMERIS_TYPE":0,"CLASSIFICATION_TYPE":"U","NORAD_CAT_ID":61605,"ELEMENT_SET_NO":999,"REV_AT_EPOCH":6666,"BSTAR":-0.0017275,"MEAN_MOTION_DOT":-5.9e-6,"MEAN_MOTION_DDOT":0},{"OBJECT_NAME":"ONEWEB-0700","OBJECT_ID":"2024-188N","EPOCH":"2026-02-09T13:08:16.401120","MEAN_MOTION":13.10373031,"ECCENTRICITY":0.0002331,"INCLINATION":87.8774,"RA_OF_ASC_NODE":61.5864,"ARG_OF_PERICENTER":106.9071,"MEAN_ANOMALY":253.2312,"EPHEMERIS_TYPE":0,"CLASSIFICATION_TYPE":"U","NORAD_CAT_ID":61606,"ELEMENT_SET_NO":999,"REV_AT_EPOCH":6658,"BSTAR":-0.0016185,"MEAN_MOTION_DOT":-5.52e-6,"MEAN_MOTION_DDOT":0},{"OBJECT_NAME":"ONEWEB-0701","OBJECT_ID":"2024-188P","EPOCH":"2026-02-10T02:21:52.058880","MEAN_MOTION":13.10373803,"ECCENTRICITY":0.0002087,"INCLINATION":87.8764,"RA_OF_ASC_NODE":61.5845,"ARG_OF_PERICENTER":116.5824,"MEAN_ANOMALY":243.5517,"EPHEMERIS_TYPE":0,"CLASSIFICATION_TYPE":"U","NORAD_CAT_ID":61607,"ELEMENT_SET_NO":999,"REV_AT_EPOCH":6666,"BSTAR":-0.00036636,"MEAN_MOTION_DOT":-1.15e-6,"MEAN_MOTION_DDOT":0},{"OBJECT_NAME":"ONEWEB-0702","OBJECT_ID":"2024-188Q","EPOCH":"2026-02-10T01:28:51.964320","MEAN_MOTION":13.11418966,"ECCENTRICITY":0.0002453,"INCLINATION":87.8834,"RA_OF_ASC_NODE":46.2611,"ARG_OF_PERICENTER":113.0138,"MEAN_ANOMALY":247.1249,"EPHEMERIS_TYPE":0,"CLASSIFICATION_TYPE":"U","NORAD_CAT_ID":61608,"ELEMENT_SET_NO":999,"REV_AT_EPOCH":6782,"BSTAR":0.00063393,"MEAN_MOTION_DOT":2.37e-6,"MEAN_MOTION_DDOT":0}]
