ONEWEB-0703             
1 56724U 23068Q   26041.09037512 -.00000040  00000+0 -14110-3 0  9998
2 56724  87.8974 284.5834 0000620  58.1193 301.9997 13.15549443132540
ONEWEB-0721             
1 56725U 23068R   26041.18337652  .00000055  00000+0  97956-4 0  9991
2 56725  86.6805 126.0591 0001785 105.3683 254.7648 13.22459139141158
ONEWEB-0015             
1 61594U 24188A   26040.97014954 -.00000376  00000+0 -10979-2 0  9994
2 61594  87.8818  46.4071 0002111  72.9080 287.2279 13.11417105 67789
ONEWEB-0687             
1 61595U 24188B   26041.03769347  .00000176  00000+0  42112-3 0  9997
2 61595  87.9091  31.1466 0002425  84.0058 276.1350 13.17647205 69152
ONEWEB-0688             
1 61596U 24188C   26040.99045085  .00000010  00000+0 -62456-5 0  9991
2 61596  87.9089  31.1557 0002587  56.8626 303.2753 13.17648566 69147
ONEWEB-0689             
1 61597U 24188D   26041.00407042  .00000544  00000+0  14983-2 0  9990
2 61597  87.8831  46.3362 0002163  91.4388 268.6987 13.11415996 67788
ONEWEB-0690             
1 61598U 24188E   26041.01423926  .00000240  00000+0  64056-3 0  9991
2 61598  87.8832  46.3548 0001143  88.5033 271.6226 13.11415894 67964
ONEWEB-0691             
1 61599U 24188F   26040.93286157  .00000313  00000+0  84775-3 0  9996
2 61599  87.8838  46.2697 0002074  77.2907 282.8453 13.11415437 67806
ONEWEB-0692             
1 61600U 24188G   26041.02949015 -.00000453  00000+0 -13137-2 0  9999
2 61600  87.8818  46.3880 0002247 115.4565 244.6796 13.11415832 67804
ONEWEB-0693             
1 61601U 24188H   26040.47071480  .00000033  00000+0  51655-4 0  9991
2 61601  87.9085  31.2812 0001159  70.1688 289.9568 13.17647992 69063
ONEWEB-0695             
1 61602U 24188J   26041.00576969  .00000518  00000+0  14247-2 0  9996
2 61602  87.8818  46.3835 0002287  98.6361 261.5026 13.11414530 67792
ONEWEB-0697             
1 61603U 24188K   26041.03796830 -.00000463  00000+0 -13436-2 0  9991
2 61603  87.8819  46.3666 0002135 112.0704 248.0650 13.11416827 67783
ONEWEB-0698             
1 61604U 24188L   26041.01593551  .00000157  00000+0  40626-3 0  9995
2 61604  87.8818  46.3861 0001433 130.2823 229.8430 13.11415508 67805
ONEWEB-0699             
1 61605U 24188M   26041.08025803 -.00000590  00000+0 -17275-2 0  9999
2 61605  87.8759  61.5887 0001989 112.6732 247.4605 13.10371712 66666
ONEWEB-0700             
1 61606U 24188N   26040.54741205 -.00000552  00000+0 -16185-2 0  9998
2 61606  87.8774  61.5864 0002331 106.9071 253.2312 13.10373031 66580
ONEWEB-0701             
1 61607U 24188P   26041.09851920 -.00000115  00000+0 -36636-3 0  9995
2 61607  87.8764  61.5845 0002087 116.5824 243.5517 13.10373803 66665
ONEWEB-0702             
1 61608U 24188Q   26041.06171255  .00000237  00000+0  63393-3 0  9992
2 61608  87.8834  46.2611 0002453 113.0138 247.1249 13.11418966 67824
